{
    "links": {
        "self": "http://www.neowsapp.com/rest/v1/neo/3408129?api_key=iIulBulltgU6a56xZRHN4H3l9WmuAYTsLGpBGhQ2"
    },
    "id": "3408129",
    "neo_reference_id": "3408129",
    "name": "(2008 GR)",
    "designation": "2008 GR",
    "nasa_jpl_url": "http://ssd.jpl.nasa.gov/sbdb.cgi?sstr=3408129",
    "absolute_magnitude_h": 25.6,
    "estimated_diameter": {
        "kilometers": {
            "estimated_diameter_min": 0.0201629919,
            "estimated_diameter_max": 0.0450858206
        },
        "meters": {
            "estimated_diameter_min": 20.1629919443,
            "estimated_diameter_max": 45.0858206172
        },
        "miles": {
            "estimated_diameter_min": 0.0125286985,
            "estimated_diameter_max": 0.0280150214
        },
        "feet": {
            "estimated_diameter_min": 66.1515504905,
            "estimated_diameter_max": 147.9193637137
        }
    },
    "is_potentially_hazardous_asteroid": false,
    "close_approach_data": [
        {
            "close_approach_date": "2008-04-16",
            "close_approach_date_full": "2008-Apr-16 19:03",
            "epoch_date_close_approach": 1208372580000,
            "relative_velocity": {
                "kilometers_per_second": "8.8522163292",
                "kilometers_per_hour": "31867.9787852679",
                "miles_per_hour": "19801.5227068794"
            },
            "miss_distance": {
                "astronomical": "0.0396636559",
                "lunar": "15.4291621451",
                "kilometers": "5933598.439052933",
                "miles": "3686967.1030911554"
            },
            "orbiting_body": "Earth"
        }
    ],
    "orbital_data": {
        "orbit_id": "6",
        "orbit_determination_date": "2017-04-06 09:03:49",
        "first_observation_date": "2008-04-03",
        "last_observation_date": "2008-04-04",
        "data_arc_in_days": 1,
        "observations_used": 12,
        "orbit_uncertainty": "9",
        "minimum_orbit_intersection": ".0169045",
        "jupiter_tisserand_invariant": "4.037",
        "epoch_osculation": "2454560.5",
        "eccentricity": ".436439227931203",
        "semi_major_axis": "1.734601431080069",
        "inclination": "3.115747620629294",
        "ascending_node_longitude": "17.07284950028891",
        "orbital_period": "834.4455008941774",
        "perihelion_distance": ".9775533217311241",
        "perihelion_argument": "224.1049104881297",
        "aphelion_distance": "2.491649540429015",
        "perihelion_time": "2454600.659233462611",
        "mean_anomaly": "342.6743339965909",
        "mean_motion": ".4314242207720339",
        "equinox": "J2000",
        "orbit_class": {
            "orbit_class_type": "APO",
            "orbit_class_description": "Near-Earth asteroid orbits which cross the Earth’s orbit similar to that of 1862 Apollo",
            "orbit_class_range": "a (semi-major axis) > 1.0 AU; q (perihelion) < 1.017 AU"
        }
    },
    "is_sentry_object": false
}